GLOBALSTAR M024         
1 25883U 99043A   26001.21563012 -.00000060  00000+0  17181-3 0  9997
2 25883  52.0029 293.8016 0002156  53.8916  96.0664 11.10165568136859
GLOBALSTAR M027         
1 25884U 99043B   26001.35610021 -.00000047  00000+0  62563-3 0  9995
2 25884  52.0246  17.0790 0021247 311.2467  48.6496 11.04372701163139
GLOBALSTAR M054         
1 25885U 99043C   26001.58717201 -.00000080  00000+0 -21849-3 0  9999
2 25885  52.0136 110.5662 0005614 152.5678 220.2158 11.39225077141663
GLOBALSTAR M053         
1 25886U 99043D   26001.46286644 -.00000070  00000+0 -40130-4 0  9993
2 25886  51.9999  68.9609 0003514  70.2804  33.3314 11.27668973141817
GLOBALSTAR M058         
1 25907U 99049A   26001.84436259 -.00000072  00000+0  16891-3 0  9991
2 25907  51.9960 298.7053 0001770 311.6934  48.3749 11.93206215565259
GLOBALSTAR M050         
1 25908U 99049B   26001.97540309 -.00000087  00000+0  10789-4 0  9995
2 25908  52.0001 291.1796 0009785  66.5825  14.4885 12.07463510172201
GLOBALSTAR M033         
1 25909U 99049C   26001.81623618 -.00000101  00000+0 -89612-4 0  9993
2 25909  51.9894 149.7279 0013321 315.6397  44.3382 12.20295554559992
GLOBALSTAR M055         
1 25910U 99049D   26001.87310711 -.00000084  00000+0  87625-4 0  9999
2 25910  52.0003 150.6391 0007274 175.2788 184.8133 12.29438947192720
